ORBCOMM FM24 [-]        
1 25478U 98053D   23343.14338048  .00000838  00000+0  34082-3 0  9995
2 25478  45.0105  18.6621 0002858 280.2671  79.7854 14.34987023317491
ORBCOMM FM25 [-]        
1 25479U 98053E   23343.45596910  .00000732  00000+0  30391-3 0  9996
2 25479  45.0091  15.4241 0004505 315.5860  44.4626 14.34976309317831
ORBCOMM FM26 [-]        
1 25480U 98053F   23342.92108657  .00000822  00000+0  33821-3 0  9997
2 25480  45.0090  11.4775 0005656 342.9634  17.1023 14.34513965317700
ORBCOMM FM27 [+]        
1 25481U 98053G   23343.16323582  .00000909  00000+0  36567-3 0  9997
2 25481  45.0079  17.0634 0001972 250.9745 109.0888 14.34949210317720
ORBCOMM FM28 [-]        
1 25482U 98053H   23343.96447717  .00000835  00000+0  33694-3 0  9999
2 25482  45.0079 312.2883 0004126   7.8297 352.2614 14.35433903318506
ORBCOMM FM30 [-]        
1 25980U 99065A   23343.59421707  .00000623  00000+0  26782-3 0  9991
2 25980  45.0306 193.6859 0006355 105.4144 254.7406 14.34647572255129
ORBCOMM FM31 [-]        
1 25981U 99065B   23343.70016428  .00000577  00000+0  25163-3 0  9995
2 25981  45.0222 186.9992 0003411 128.0553 232.0602 14.34665031254165
ORBCOMM FM32 [+]        
1 25982U 99065C   23343.71084002  .00000559  00000+0  25055-3 0  9990
2 25982  45.0149 199.6368 0005565 128.5817 231.5529 14.33610163254811
